NORAD_CAT_ID,OBJECT_NAME,OBJECT_TYPE,EPOCH,MEAN_MOTION,ECCENTRICITY,INCLINATION,RA_OF_ASC_NODE,ARG_OF_PERICENTER,MEAN_ANOMALY,BSTAR,MEAN_MOTION_DOT,MEAN_MOTION_DDOT,TLE_LINE0,TLE_LINE1,TLE_LINE2,SEMIMAJOR_AXIS,PERIOD,APOGEE,PERIGEE,DECAYED
52642.0,STARLINK-3971,PAYLOAD,2024-05-01 02:27:51,15.08849548,0.0001806,53.2185,60.9251,87.517,272.6029,0.00024582,3.627e-05,0.0,0 STARLINK-3971,1 52642U 22052AW  24122.10267398  .00003627  00000-0  24582-3 0  9999,2 52642  53.2185  60.9251 0001806  87.5170 272.6029 15.08849548109214,6917.851,95.437,540.966,538.467,0.0
52642.0,STARLINK-3971,PAYLOAD,2024-05-01 05:38:37,15.08849322,0.0001731,53.2184,60.3295,88.9009,271.2181,0.00024277,3.579e-05,0.0,0 STARLINK-3971,1 52642U 22052AW  24122.23515318  .00003579  00000-0  24277-3 0  9998,2 52642  53.2184  60.3295 0001731  88.9009 271.2181 15.08849322108851,6917.852,95.437,540.914,538.519,0.0
52642.0,STARLINK-3971,PAYLOAD,2024-05-02 02:18:37,15.08845426,0.0001556,53.2173,56.4628,89.4348,270.6823,0.00012614,1.72e-05,0.0,0 STARLINK-3971,1 52642U 22052AW  24123.09627255  .00001720  00000-0  12614-3 0  9995,2 52642  53.2173  56.4628 0001556  89.4348 270.6823 15.08845426109366,6917.864,95.437,540.805,538.652,0.0
52642.0,STARLINK-3971,PAYLOAD,2024-05-02 05:29:24,15.08846145,0.0001553,53.218,55.8682,89.7514,270.3656,6.0634e-05,6.77e-06,0.0,0 STARLINK-3971,1 52642U 22052AW  24123.22875196  .00000677  00000-0  60634-4 0  9995,2 52642  53.2180  55.8682 0001553  89.7514 270.3656 15.08846145109003,6917.862,95.437,540.801,538.652,0.0
52642.0,STARLINK-3971,PAYLOAD,2024-05-03 11:41:43,15.08847474,0.0001362,53.2172,50.2186,77.7578,282.3566,0.00014728,2.057e-05,0.0,0 STARLINK-3971,1 52642U 22052AW  24124.48731023  .00002057  00000-0  14728-3 0  9990,2 52642  53.2172  50.2186 0001362  77.7578 282.3566 15.08847474109578,6917.858,95.437,540.665,538.78,0.0
52642.0,STARLINK-3971,PAYLOAD,2024-05-03 19:38:39,15.08835182,0.0001537,53.217,48.7347,85.6309,274.4859,-7.3509e-05,-1.458e-05,0.0,0 STARLINK-3971,1 52642U 22052AW  24124.81851647 -.00001458  00000-0 -73509-4 0  9991,2 52642  53.2170  48.7347 0001537  85.6309 274.4859 15.08835182109627,6917.895,95.438,540.823,538.697,0.0
52642.0,STARLINK-3971,PAYLOAD,2024-05-03 22:49:26,15.08832868,0.0001297,53.2174,48.1405,88.9527,271.1614,-0.00011059,-2.047e-05,0.0,0 STARLINK-3971,1 52642U 22052AW  24124.95099758 -.00002047  00000-0 -11059-3 0  9999,2 52642  53.2174  48.1405 0001297  88.9527 271.1614 15.08832868109262,6917.902,95.438,540.664,538.87,0.0
52642.0,STARLINK-3971,PAYLOAD,2024-05-05 03:26:22,15.08846377,0.0001225,53.2178,42.7901,96.6023,263.5109,0.0002288,3.356e-05,0.0,0 STARLINK-3971,1 52642U 22052AW  24126.14331727  .00003356  00000-0  22880-3 0  9993,2 52642  53.2178  42.7901 0001225  96.6023 263.5109 15.08846377109821,6917.861,95.437,540.573,538.878,0.0
52642.0,STARLINK-3971,PAYLOAD,2024-05-05 22:31:00,15.0884361,0.000132,53.2186,39.2217,94.9313,265.183,0.00027656,4.117e-05,0.0,0 STARLINK-3971,1 52642U 22052AW  24126.93820078  .00004117  00000-0  27656-3 0  9994,2 52642  53.2186  39.2217 0001320  94.9313 265.1830 15.08843610109567,6917.869,95.437,540.648,538.821,0.0
52642.0,STARLINK-3971,PAYLOAD,2024-05-06 11:14:05,15.08845769,0.0001409,53.2172,36.8392,79.8381,280.277,0.00023535,3.46e-05,0.0,0 STARLINK-3971,1 52642U 22052AW  24127.46811946  .00003460  00000-0  23535-3 0  9999,2 52642  53.2172  36.8392 0001409  79.8381 280.2770 15.08845769110025,6917.863,95.437,540.702,538.753,0.0
52642.0,STARLINK-3971,PAYLOAD,2024-05-06 22:21:47,15.08852801,0.0001687,53.2188,34.7573,86.3629,273.7556,0.00035246,5.328e-05,0.0,0 STARLINK-3971,1 52642U 22052AW  24127.93179658  .00005328  00000-0  35246-3 0  9995,2 52642  53.2188  34.7573 0001687  86.3629 273.7556 15.08852801109714,6917.841,95.437,540.873,538.539,0.0
52642.0,STARLINK-3971,PAYLOAD,2024-05-07 11:04:52,15.08847964,0.000139,53.2183,32.3808,91.5445,268.5706,0.00027498,4.092e-05,0.0,0 STARLINK-3971,1 52642U 22052AW  24128.46171636  .00004092  00000-0  27498-3 0  9999,2 52642  53.2183  32.3808 0001390  91.5445 268.5706 15.08847964109790,6917.856,95.437,540.683,538.759,0.0
52642.0,STARLINK-3971,PAYLOAD,2024-05-07 17:26:25,15.08838877,0.0001412,53.2166,31.1939,91.9196,268.1957,5.394e-06,-2.02e-06,0.0,0 STARLINK-3971,1 52642U 22052AW  24128.72668019 -.00000202  00000-0  53940-5 0  9997,2 52642  53.2166  31.1939 0001412  91.9196 268.1957 15.08838877110211,6917.884,95.438,540.726,538.772,0.0
52642.0,STARLINK-3971,PAYLOAD,2024-05-07 22:12:34,15.08835236,0.0001747,53.2185,30.2978,95.8755,264.2437,-2.775e-05,-7.3e-06,0.0,0 STARLINK-3971,1 52642U 22052AW  24128.92540261 -.00000730  00000-0 -27750-4 0  9993,2 52642  53.2185  30.2978 0001747  95.8755 264.2437 15.08835236109865,6917.895,95.438,540.969,538.551,0.0
52642.0,STARLINK-3971,PAYLOAD,2024-05-08 10:55:40,15.08838934,0.0001502,53.2189,27.9193,95.2657,264.8507,0.0001164,1.565e-05,0.0,0 STARLINK-3971,1 52642U 22052AW  24129.45532459  .00001565  00000-0  11640-3 0  9997,2 52642  53.2189  27.9193 0001502  95.2657 264.8507 15.08838934109946,6917.884,95.438,540.788,538.71,0.0
52642.0,STARLINK-3971,PAYLOAD,2024-05-08 20:27:58,15.08846535,0.0001334,53.2176,26.135,96.8694,263.245,0.0003168,4.758e-05,0.0,0 STARLINK-3971,1 52642U 22052AW  24129.85276224  .00004758  00000-0  31680-3 0  9999,2 52642  53.2176  26.1350 0001334  96.8694 263.2450 15.08846535110385,6917.86,95.437,540.648,538.803,0.0
52642.0,STARLINK-3971,PAYLOAD,2024-05-08 22:03:21,15.08849286,0.0001398,53.2179,25.8386,90.2552,269.86,0.00049369,7.58e-05,0.0,0 STARLINK-3971,1 52642U 22052AW  24129.91900285  .00007580  00000-0  49369-3 0  9996,2 52642  53.2179  25.8386 0001398  90.2552 269.8600 15.08849286110019,6917.852,95.437,540.684,538.75,0.0
52642.0,STARLINK-3971,PAYLOAD,2024-05-08 23:38:45,15.08851506,0.0001416,53.2183,25.5406,95.6929,264.4224,0.00077181,0.00012021,0.0,0 STARLINK-3971,1 52642U 22052AW  24129.98524345  .00012021  00000-0  77181-3 0  9991,2 52642  53.2183  25.5406 0001416  95.6929 264.4224 15.08851506110024,6917.845,95.437,540.69,538.731,0.0
52642.0,STARLINK-3971,PAYLOAD,2024-05-09 20:18:45,15.08849033,0.0001282,53.2157,21.675,93.5213,266.5926,0.00043323,6.615e-05,0.0,0 STARLINK-3971,1 52642U 22052AW  24130.84636422  .00006615  00000-0  43323-3 0  9991,2 52642  53.2157  21.6750 0001282  93.5213 266.5926 15.08849033110538,6917.853,95.437,540.605,538.831,0.0
52642.0,STARLINK-3971,PAYLOAD,2024-05-09 21:54:08,15.08844797,0.0001391,53.2179,21.3756,99.1049,261.01,0.00023864,3.513e-05,0.0,0 STARLINK-3971,1 52642U 22052AW  24130.91260372  .00003513  00000-0  23864-3 0  9998,2 52642  53.2179  21.3756 0001391  99.1049 261.0100 15.08844797110160,6917.866,95.437,540.693,538.768,0.0
52642.0,STARLINK-3971,PAYLOAD,2024-05-10 02:40:18,15.08846525,0.0001443,53.2187,20.4832,103.4101,256.7052,0.00023854,3.511e-05,0.0,0 STARLINK-3971,1 52642U 22052AW  24131.11132280  .00003511  00000-0  23854-3 0  9994,2 52642  53.2187  20.4832 0001443 103.4101 256.7052 15.08846525110191,6917.86,95.437,540.724,538.727,0.0
52642.0,STARLINK-3971,PAYLOAD,2024-05-10 20:09:32,15.08849856,0.0001412,53.218,17.2102,100.3785,259.7366,0.00017524,2.503e-05,0.0,0 STARLINK-3971,1 52642U 22052AW  24131.83996186  .00002503  00000-0  17524-3 0  9993,2 52642  53.2180  17.2102 0001412 100.3785 259.7366 15.08849856110683,6917.85,95.437,540.692,538.738,0.0
52642.0,STARLINK-3971,PAYLOAD,2024-05-10 21:44:55,15.08853609,0.0001474,53.2181,16.9137,97.4934,262.6226,0.00023114,3.394e-05,0.0,0 STARLINK-3971,1 52642U 22052AW  24131.90620067  .00003394  00000-0  23114-3 0  9994,2 52642  53.2181  16.9137 0001474  97.4934 262.6226 15.08853609110317,6917.839,95.437,540.723,538.684,0.0
52642.0,STARLINK-3971,PAYLOAD,2024-05-10 23:20:18,15.08858562,0.0001618,53.2189,16.6171,113.895,246.2212,0.00038607,5.865e-05,0.0,0 STARLINK-3971,1 52642U 22052AW  24131.97243686  .00005865  00000-0  38607-3 0  9997,2 52642  53.2189  16.6171 0001618 113.8950 246.2212 15.08858562110700,6917.824,95.436,540.808,538.569,0.0
52642.0,STARLINK-3971,PAYLOAD,2024-05-11 08:52:35,15.08911228,0.0001201,53.2176,14.8311,80.475,279.6378,0.0013909,0.00021961,0.0,0 STARLINK-3971,1 52642U 22052AW  24132.36985285  .00021961  00000-0  13909-2 0  9991,2 52642  53.2176  14.8311 0001201  80.4750 279.6378 15.08911228110765,6917.663,95.433,540.358,538.697,0.0
52642.0,STARLINK-3971,PAYLOAD,2024-05-11 20:00:17,15.08864042,0.0001966,53.2184,12.7493,26.4178,333.6914,0.00015675,2.209e-05,0.0,0 STARLINK-3971,1 52642U 22052AW  24132.83353394  .00002209  00000-0  15675-3 0  9990,2 52642  53.2184  12.7493 0001966  26.4178 333.6914 15.08864042110830,6917.807,95.436,541.032,538.312,0.0
52642.0,STARLINK-3971,PAYLOAD,2024-05-11 23:11:05,15.0877497,0.0001524,53.2183,12.1597,97.9767,262.1398,-0.0021493,-0.00034271,0.0,0 STARLINK-3971,1 52642U 22052AW  24132.96604006 -.00034271  00000-0 -21493-2 0  9993,2 52642  53.2183  12.1597 0001524  97.9767 262.1398 15.08774970110477,6918.079,95.442,540.998,538.89,0.0
52642.0,STARLINK-3971,PAYLOAD,2024-05-12 08:43:27,15.08736445,0.0001359,53.2176,10.3776,96.8848,263.2299,-0.002363,-0.00037593,0.0,0 STARLINK-3971,1 52642U 22052AW  24133.36350880 -.00037593  00000-0 -23630-2 0  9991,2 52642  53.2176  10.3776 0001359  96.8848 263.2299 15.08736445110918,6918.197,95.444,541.002,539.122,0.0
52642.0,STARLINK-3971,PAYLOAD,2024-05-12 19:51:13,15.08697928,0.0002179,53.2195,8.2998,108.4614,251.6615,-0.0022309,-0.00035482,0.0,0 STARLINK-3971,1 52642U 22052AW  24133.82723772 -.00035482  00000-0 -22309-2 0  9993,2 52642  53.2195   8.2998 0002179 108.4614 251.6615 15.08697928110985,6918.315,95.447,541.687,538.672,0.0
52642.0,STARLINK-3971,PAYLOAD,2024-05-12 21:26:33,15.08799169,0.0003164,53.219,7.997,151.7136,208.4028,-0.00012679,-2.304e-05,0.0,0 STARLINK-3971,1 52642U 22052AW  24133.89344649 -.00002304  00000-0 -12679-3 0  9999,2 52642  53.2190   7.9970 0003164 151.7136 208.4028 15.08799169110619,6918.005,95.44,542.059,537.681,0.0
